COMMENT,ORIGINATOR,NORAD_CAT_ID,OBJECT_NAME,OBJECT_TYPE,CLASSIFICATION_TYPE,INTLDES,EPOCH,EPOCH_MICROSECONDS,MEAN_MOTION,ECCENTRICITY,INCLINATION,RA_OF_ASC_NODE,ARG_OF_PERICENTER,MEAN_ANOMALY,EPHEMERIS_TYPE,ELEMENT_SET_NO,REV_AT_EPOCH,BSTAR,MEAN_MOTION_DOT,MEAN_MOTION_DDOT,FILE,TLE_LINE0,TLE_LINE1,TLE_LINE2,OBJECT_ID,OBJECT_NUMBER,SEMIMAJOR_AXIS,PERIOD,APOGEE,PERIGEE,DECAYED
"GENERATED VIA SPACETRACK.ORG API","18 SPCS","48884","SPACEBEE-101","PAYLOAD","U","21059F","2023-12-24 09:03:15","736608","15.53570907","0.0004506","97.6054","142.3575","310.8712","49.215","0","999","13864","0.0018306","0.00118018","0","4144212","0 SPACEBEE-101","1 48884U 21059F   23358.37726547  .00118018  00000-0  18306-2 0  9990","2 48884  97.6054 142.3575 0004506 310.8712  49.2150 15.53570907138644","2021-059F","48884","6784.447","92.690","409.369","403.255","0"
"GENERATED VIA SPACETRACK.ORG API","18 SPCS","48884","SPACEBEE-101","PAYLOAD","U","21059F","2023-12-24 21:25:14","180736","15.53693269","0.0004553","97.6055","142.9048","310.375","49.7105","0","999","13872","0.0018293","0.00118464","0","4144500","0 SPACEBEE-101","1 48884U 21059F   23358.89252524  .00118464  00000-0  18293-2 0  9996","2 48884  97.6055 142.9048 0004553 310.3750  49.7105 15.53693269138726","2021-059F","48884","6784.091","92.682","409.045","402.867","0"
"GENERATED VIA SPACETRACK.ORG API","18 SPCS","48884","SPACEBEE-101","PAYLOAD","U","21059F","2023-12-24 22:57:58","707072","15.53711223","0.0004552","97.6057","142.9732","310.0169","50.0684","0","999","13873","0.0018645","0.0012086","0","4144604","0 SPACEBEE-101","1 48884U 21059F   23358.95692948  .00120860  00000-0  18645-2 0  9995","2 48884  97.6057 142.9732 0004552 310.0169  50.0684 15.53711223138737","2021-059F","48884","6784.039","92.681","408.992","402.815","0"
"GENERATED VIA SPACETRACK.ORG API","18 SPCS","48884","SPACEBEE-101","PAYLOAD","U","21059F","2023-12-25 09:47:08","993472","15.53819265","0.0004456","97.6059","143.4512","309.1242","50.9614","0","999","13880","0.0016764","0.00108917","0","4145093","0 SPACEBEE-101","1 48884U 21059F   23359.40774298  .00108917  00000-0  16764-2 0  9994","2 48884  97.6059 143.4512 0004456 309.1242  50.9614 15.53819265138800","2021-059F","48884","6783.724","92.675","408.612","402.566","0"
"GENERATED VIA SPACETRACK.ORG API","18 SPCS","48884","SPACEBEE-101","PAYLOAD","U","21059F","2023-12-25 22:09:00","492768","15.53931699","0.0004536","97.606","143.9984","309.3808","50.7043","0","999","13888","0.0017117","0.00111707","0","4145360","0 SPACEBEE-101","1 48884U 21059F   23359.92292237  .00111707  00000-0  17117-2 0  9993","2 48884  97.6060 143.9984 0004536 309.3808  50.7043 15.53931699138887","2021-059F","48884","6783.397","92.668","408.339","402.185","0"
"GENERATED VIA SPACETRACK.ORG API","18 SPCS","48884","SPACEBEE-101","PAYLOAD","U","21059F","2023-12-25 22:09:00","492768","15.53931699","0.0004536","97.606","143.9984","309.3808","50.7043","0","999","13888","0.0017117","0.00111707","0","4145466","0 SPACEBEE-101","1 48884U 21059F   23359.92292237  .00111707  00000-0  17117-2 0  9993","2 48884  97.6060 143.9984 0004536 309.3808  50.7043 15.53931699138887","2021-059F","48884","6783.397","92.668","408.339","402.185","0"
"GENERATED VIA SPACETRACK.ORG API","18 SPCS","48884","SPACEBEE-101","PAYLOAD","U","21059F","2023-12-26 08:58:05","270304","15.54034739","0.0004568","97.6063","144.4768","307.0828","53.0006","0","999","13895","0.0016488","0.0010795","0","4145944","0 SPACEBEE-101","1 48884U 21059F   23360.37367211  .00107950  00000-0  16488-2 0  9994","2 48884  97.6063 144.4768 0004568 307.0828  53.0006 15.54034739138951","2021-059F","48884","6783.097","92.662","408.060","401.863","0"
"GENERATED VIA SPACETRACK.ORG API","18 SPCS","48884","SPACEBEE-101","PAYLOAD","U","21059F","2023-12-26 16:41:41","420256","15.54108953","0.0004612","97.6065","144.819","307.1735","52.9096","0","999","13900","0.0018791","0.00123617","0","4146233","0 SPACEBEE-101","1 48884U 21059F   23360.69561829  .00123617  00000-0  18791-2 0  9997","2 48884  97.6065 144.8190 0004612 307.1735  52.9096 15.54108953139008","2021-059F","48884","6782.881","92.658","407.874","401.618","0"
"GENERATED VIA SPACETRACK.ORG API","18 SPCS","48884","SPACEBEE-101","PAYLOAD","U","21059F","2023-12-26 16:41:41","420256","15.54108953","0.0004612","97.6065","144.819","307.1735","52.9096","0","999","13900","0.0018791","0.00123617","0","4146291","0 SPACEBEE-101","1 48884U 21059F   23360.69561829  .00123617  00000-0  18791-2 0  9997","2 48884  97.6065 144.8190 0004612 307.1735  52.9096 15.54108953139008","2021-059F","48884","6782.881","92.658","407.874","401.618","0"
"GENERATED VIA SPACETRACK.ORG API","18 SPCS","48884","SPACEBEE-101","PAYLOAD","U","21059F","2023-12-27 08:08:49","794144","15.54254234","0.0004583","97.6068","145.5021","305.4774","54.6051","0","999","13910","0.0015954","0.0010525","0","4146533","0 SPACEBEE-101","1 48884U 21059F   23361.33946521  .00105250  00000-0  15954-2 0  9996","2 48884  97.6068 145.5021 0004583 305.4774  54.6051 15.54254234139108","2021-059F","48884","6782.458","92.649","407.432","401.215","0"
"GENERATED VIA SPACETRACK.ORG API","18 SPCS","48884","SPACEBEE-101","PAYLOAD","U","21059F","2023-12-27 08:08:49","794144","15.54254234","0.0004583","97.6068","145.5021","305.4774","54.6051","0","999","13910","0.0015954","0.0010525","0","4146803","0 SPACEBEE-101","1 48884U 21059F   23361.33946521  .00105250  00000-0  15954-2 0  9996","2 48884  97.6068 145.5021 0004583 305.4774  54.6051 15.54254234139108","2021-059F","48884","6782.458","92.649","407.432","401.215","0"
"GENERATED VIA SPACETRACK.ORG API","18 SPCS","48884","SPACEBEE-101","PAYLOAD","U","21059F","2023-12-27 22:03:11","51424","15.54376198","0.0004575","97.6064","146.1176","304.6726","55.4095","0","999","13919","0.0015574","0.0010317","0","4147095","0 SPACEBEE-101","1 48884U 21059F   23361.91887791  .00103170  00000-0  15574-2 0  9990","2 48884  97.6064 146.1176 0004575 304.6726  55.4095 15.54376198139191","2021-059F","48884","6782.104","92.642","407.071","400.866","0"
"GENERATED VIA SPACETRACK.ORG API","18 SPCS","48884","SPACEBEE-101","PAYLOAD","U","21059F","2023-12-28 08:52:04","825920","15.54471297","0.000452","97.6066","146.5958","302.7346","57.3471","0","999","13926","0.0014844","0.00098613","0","4147451","0 SPACEBEE-101","1 48884U 21059F   23362.36950030  .00098613  00000-0  14844-2 0  9991","2 48884  97.6066 146.5958 0004520 302.7346  57.3471 15.54471297139265","2021-059F","48884","6781.827","92.636","406.757","400.627","0"
"GENERATED VIA SPACETRACK.ORG API","18 SPCS","48884","SPACEBEE-101","PAYLOAD","U","21059F","2023-12-28 08:52:04","825920","15.54471297","0.000452","97.6066","146.5958","302.7346","57.3471","0","999","13926","0.0014844","0.00098613","0","4147674","0 SPACEBEE-101","1 48884U 21059F   23362.36950030  .00098613  00000-0  14844-2 0  9991","2 48884  97.6066 146.5958 0004520 302.7346  57.3471 15.54471297139265","2021-059F","48884","6781.827","92.636","406.757","400.627","0"
"GENERATED VIA SPACETRACK.ORG API","18 SPCS","48884","SPACEBEE-101","PAYLOAD","U","21059F","2023-12-29 09:35:07","829088","15.54679785","0.0004503","97.6069","147.6898","300.7022","59.3787","0","999","13942","0.0014688","0.00098314","0","4148240","0 SPACEBEE-101","1 48884U 21059F   23363.39939617  .00098314  00000-0  14688-2 0  9997","2 48884  97.6069 147.6898 0004503 300.7022  59.3787 15.54679785139425","2021-059F","48884","6781.221","92.624","406.139","400.032","0"
"GENERATED VIA SPACETRACK.ORG API","18 SPCS","48884","SPACEBEE-101","PAYLOAD","U","21059F","2023-12-29 09:35:07","829088","15.54679785","0.0004503","97.6069","147.6898","300.7022","59.3787","0","999","13942","0.0014688","0.00098314","0","4148460","0 SPACEBEE-101","1 48884U 21059F   23363.39939617  .00098314  00000-0  14688-2 0  9997","2 48884  97.6069 147.6898 0004503 300.7022  59.3787 15.54679785139425","2021-059F","48884","6781.221","92.624","406.139","400.032","0"
"GENERATED VIA SPACETRACK.ORG API","18 SPCS","48884","SPACEBEE-101","PAYLOAD","U","21059F","2023-12-29 21:56:34","890144","15.54779555","0.0004645","97.6066","148.237","300.4803","59.5991","0","999","13950","0.0014124","0.00094841","0","4148761","0 SPACEBEE-101","1 48884U 21059F   23363.91429271  .00094841  00000-0  14124-2 0  9991","2 48884  97.6066 148.2370 0004645 300.4803  59.5991 15.54779555139509","2021-059F","48884","6780.931","92.618","405.945","399.646","0"
"GENERATED VIA SPACETRACK.ORG API","18 SPCS","48884","SPACEBEE-101","PAYLOAD","U","21059F","2023-12-30 08:45:18","551520","15.54873808","0.0004574","97.6068","148.7154","298.5331","61.5462","0","999","13957","0.0013901","0.00093648","0","4149332","0 SPACEBEE-101","1 48884U 21059F   23364.36479805  .00093648  00000-0  13901-2 0  9995","2 48884  97.6068 148.7154 0004574 298.5331  61.5462 15.54873808139579","2021-059F","48884","6780.656","92.612","405.623","399.420","0"
"GENERATED VIA SPACETRACK.ORG API","18 SPCS","48884","SPACEBEE-101","PAYLOAD","U","21059F","2023-12-30 22:39:20","115648","15.54982126","0.0004723","97.6071","149.3318","298.2494","61.8283","0","999","13966","0.0013568","0.00091745","0","4149598","0 SPACEBEE-101","1 48884U 21059F   23364.94398282  .00091745  00000-0  13568-2 0  9993","2 48884  97.6071 149.3318 0004723 298.2494  61.8283 15.54982126139663","2021-059F","48884","6780.342","92.606","405.409","399.004","0"
"GENERATED VIA SPACETRACK.ORG API","18 SPCS","48884","SPACEBEE-101","PAYLOAD","U","21059F","2023-12-30 22:39:20","115648","15.54982126","0.0004723","97.6071","149.3318","298.2494","61.8283","0","999","13966","0.0013568","0.00091745","0","4149680","0 SPACEBEE-101","1 48884U 21059F   23364.94398282  .00091745  00000-0  13568-2 0  9993","2 48884  97.6071 149.3318 0004723 298.2494  61.8283 15.54982126139663","2021-059F","48884","6780.342","92.606","405.409","399.004","0"
